[{"OBJECT_NAME":"APRIZESAT 2","OBJECT_ID":"2004-025A","EPOCH":"2026-03-28T10:22:45.294816","MEAN_MOTION":14.38001783,"ECCENTRICITY":0.01065905,"INCLINATION":98.0939,"RA_OF_ASC_NODE":258.0149,"ARG_OF_PERICENTER":133.4569,"MEAN_ANOMALY":227.5547,"EPHEMERIS_TYPE":0,"CLASSIFICATION_TYPE":"U","NORAD_CAT_ID":28366,"ELEMENT_SET_NO":999,"REV_AT_EPOCH":14003,"BSTAR":0.00010833372,"MEAN_MOTION_DOT":3.08e-6,"MEAN_MOTION_DDOT":0},{"OBJECT_NAME":"SAUDICOMSAT 1","OBJECT_ID":"2004-025D","EPOCH":"2026-03-28T13:56:51.452448","MEAN_MOTION":14.55408507,"ECCENTRICITY":0.00309318,"INCLINATION":98.5807,"RA_OF_ASC_NODE":95.5295,"ARG_OF_PERICENTER":270.496,"MEAN_ANOMALY":89.2692,"EPHEMERIS_TYPE":0,"CLASSIFICATION_TYPE":"U","NORAD_CAT_ID":28369,"ELEMENT_SET_NO":999,"REV_AT_EPOCH":15240,"BSTAR":0.00011164018,"MEAN_MOTION_DOT":4.38e-6,"MEAN_MOTION_DDOT":0},{"OBJECT_NAME":"SAUDICOMSAT 2","OBJECT_ID":"2004-025E","EPOCH":"2026-03-28T14:14:20.920416","MEAN_MOTION":14.49924381,"ECCENTRICITY":0.00563239,"INCLINATION":98.6681,"RA_OF_ASC_NODE":97.5507,"ARG_OF_PERICENTER":142.6942,"MEAN_ANOMALY":217.8184,"EPHEMERIS_TYPE":0,"CLASSIFICATION_TYPE":"U","NORAD_CAT_ID":28370,"ELEMENT_SET_NO":999,"REV_AT_EPOCH":14842,"BSTAR":0.00010440701,"MEAN_MOTION_DOT":3.62e-6,"MEAN_MOTION_DDOT":0},{"OBJECT_NAME":"APRIZESAT 1","OBJECT_ID":"2004-025G","EPOCH":"2026-03-28T14:05:02.229504","MEAN_MOTION":14.51729614,"ECCENTRICITY":0.00453757,"INCLINATION":98.6341,"RA_OF_ASC_NODE":96.1066,"ARG_OF_PERICENTER":41.4701,"MEAN_ANOMALY":318.9922,"EPHEMERIS_TYPE":0,"CLASSIFICATION_TYPE":"U","NORAD_CAT_ID":28372,"ELEMENT_SET_NO":999,"REV_AT_EPOCH":15021,"BSTAR":0.00010092561,"MEAN_MOTION_DOT":3.61e-6,"MEAN_MOTION_DDOT":0},{"OBJECT_NAME":"NANOSAT-1","OBJECT_ID":"2004-049B","EPOCH":"2026-03-28T09:08:51.903456","MEAN_MOTION":14.79976349,"ECCENTRICITY":0.00040326,"INCLINATION":98.2136,"RA_OF_ASC_NODE":222.135,"ARG_OF_PERICENTER":175.1998,"MEAN_ANOMALY":184.9252,"EPHEMERIS_TYPE":0,"CLASSIFICATION_TYPE":"U","NORAD_CAT_ID":28493,"ELEMENT_SET_NO":999,"REV_AT_EPOCH":14349,"BSTAR":0.00020129887,"MEAN_MOTION_DOT":1.467e-5,"MEAN_MOTION_DDOT":0},{"OBJECT_NAME":"SAUDICOMSAT 7","OBJECT_ID":"2007-012C","EPOCH":"2026-03-28T10:34:55.644384","MEAN_MOTION":14.66000663,"ECCENTRICITY":0.0057111,"INCLINATION":98.3709,"RA_OF_ASC_NODE":59.9576,"ARG_OF_PERICENTER":89.4992,"MEAN_ANOMALY":271.2754,"EPHEMERIS_TYPE":0,"CLASSIFICATION_TYPE":"U","NORAD_CAT_ID":31119,"ELEMENT_SET_NO":999,"REV_AT_EPOCH":1060,"BSTAR":0.00016184,"MEAN_MOTION_DOT":8.55e-6,"MEAN_MOTION_DDOT":0},{"OBJECT_NAME":"SAUDICOMSAT 6","OBJECT_ID":"2007-012E","EPOCH":"2026-03-28T10:15:39.260736","MEAN_MOTION":14.62458418,"ECCENTRICITY":0.0071036,"INCLINATION":98.4021,"RA_OF_ASC_NODE":53.4862,"ARG_OF_PERICENTER":217.494,"MEAN_ANOMALY":142.1294,"EPHEMERIS_TYPE":0,"CLASSIFICATION_TYPE":"U","NORAD_CAT_ID":31121,"ELEMENT_SET_NO":999,"REV_AT_EPOCH":838,"BSTAR":0.00012021753,"MEAN_MOTION_DOT":5.77e-6,"MEAN_MOTION_DDOT":0},{"OBJECT_NAME":"SAUDICOMSAT 5","OBJECT_ID":"2007-012H","EPOCH":"2026-03-28T10:59:59.172000","MEAN_MOTION":14.68042245,"ECCENTRICITY":0.0048023,"INCLINATION":98.3422,"RA_OF_ASC_NODE":60.7379,"ARG_OF_PERICENTER":21.1686,"MEAN_ANOMALY":339.1491,"EPHEMERIS_TYPE":0,"CLASSIFICATION_TYPE":"U","NORAD_CAT_ID":31124,"ELEMENT_SET_NO":999,"REV_AT_EPOCH":1175,"BSTAR":0.00019391,"MEAN_MOTION_DOT":1.078e-5,"MEAN_MOTION_DDOT":0},{"OBJECT_NAME":"SAUDICOMSAT 3","OBJECT_ID":"2007-012J","EPOCH":"2026-03-28T10:07:17.931648","MEAN_MOTION":14.70571624,"ECCENTRICITY":0.00381616,"INCLINATION":98.3079,"RA_OF_ASC_NODE":61.259,"ARG_OF_PERICENTER":308.7873,"MEAN_ANOMALY":50.9926,"EPHEMERIS_TYPE":0,"CLASSIFICATION_TYPE":"U","NORAD_CAT_ID":31125,"ELEMENT_SET_NO":999,"REV_AT_EPOCH":1295,"BSTAR":0.00019405493,"MEAN_MOTION_DOT":1.138e-5,"MEAN_MOTION_DDOT":0},{"OBJECT_NAME":"SAUDICOMSAT 4","OBJECT_ID":"2007-012L","EPOCH":"2026-03-28T11:06:46.486656","MEAN_MOTION":14.64404401,"ECCENTRICITY":0.00640927,"INCLINATION":98.3912,"RA_OF_ASC_NODE":58.4292,"ARG_OF_PERICENTER":149.6004,"MEAN_ANOMALY":210.8939,"EPHEMERIS_TYPE":0,"CLASSIFICATION_TYPE":"U","NORAD_CAT_ID":31127,"ELEMENT_SET_NO":999,"REV_AT_EPOCH":947,"BSTAR":0.00013009908,"MEAN_MOTION_DOT":6.55e-6,"MEAN_MOTION_DDOT":0},{"OBJECT_NAME":"APRIZESAT 4","OBJECT_ID":"2009-041D","EPOCH":"2026-03-28T11:17:12.742368","MEAN_MOTION":14.83745375,"ECCENTRICITY":0.00425145,"INCLINATION":98.1454,"RA_OF_ASC_NODE":161.1772,"ARG_OF_PERICENTER":222.0549,"MEAN_ANOMALY":137.7398,"EPHEMERIS_TYPE":0,"CLASSIFICATION_TYPE":"U","NORAD_CAT_ID":35684,"ELEMENT_SET_NO":999,"REV_AT_EPOCH":89939,"BSTAR":0.00011890102,"MEAN_MOTION_DOT":9.4e-6,"MEAN_MOTION_DDOT":0},{"OBJECT_NAME":"APRIZESAT 3","OBJECT_ID":"2009-041F","EPOCH":"2026-03-28T08:57:14.978592","MEAN_MOTION":14.9596827,"ECCENTRICITY":0.00613585,"INCLINATION":98.1943,"RA_OF_ASC_NODE":236.7916,"ARG_OF_PERICENTER":335.1541,"MEAN_ANOMALY":24.6727,"EPHEMERIS_TYPE":0,"CLASSIFICATION_TYPE":"U","NORAD_CAT_ID":35686,"ELEMENT_SET_NO":999,"REV_AT_EPOCH":90429,"BSTAR":0.00015865531,"MEAN_MOTION_DOT":1.777e-5,"MEAN_MOTION_DDOT":0},{"OBJECT_NAME":"S-NET D","OBJECT_ID":"2018-014G","EPOCH":"2026-03-28T13:19:12.887328","MEAN_MOTION":15.15863078,"ECCENTRICITY":0.00068904,"INCLINATION":97.542,"RA_OF_ASC_NODE":352.8718,"ARG_OF_PERICENTER":305.7225,"MEAN_ANOMALY":54.3366,"EPHEMERIS_TYPE":0,"CLASSIFICATION_TYPE":"U","NORAD_CAT_ID":43186,"ELEMENT_SET_NO":999,"REV_AT_EPOCH":44654,"BSTAR":0.00036621722,"MEAN_MOTION_DOT":6.944e-5,"MEAN_MOTION_DDOT":0},{"OBJECT_NAME":"S-NET B","OBJECT_ID":"2018-014H","EPOCH":"2026-03-28T07:13:14.010240","MEAN_MOTION":15.15831427,"ECCENTRICITY":0.00074687,"INCLINATION":97.5424,"RA_OF_ASC_NODE":352.6034,"ARG_OF_PERICENTER":300.7224,"MEAN_ANOMALY":59.3273,"EPHEMERIS_TYPE":0,"CLASSIFICATION_TYPE":"U","NORAD_CAT_ID":43187,"ELEMENT_SET_NO":999,"REV_AT_EPOCH":44650,"BSTAR":0.00032674726,"MEAN_MOTION_DOT":6.183e-5,"MEAN_MOTION_DDOT":0},{"OBJECT_NAME":"S-NET A","OBJECT_ID":"2018-014J","EPOCH":"2026-03-28T06:57:55.329408","MEAN_MOTION":15.15866381,"ECCENTRICITY":0.0007384,"INCLINATION":97.5433,"RA_OF_ASC_NODE":352.7867,"ARG_OF_PERICENTER":301.5746,"MEAN_ANOMALY":58.4765,"EPHEMERIS_TYPE":0,"CLASSIFICATION_TYPE":"U","NORAD_CAT_ID":43188,"ELEMENT_SET_NO":999,"REV_AT_EPOCH":44650,"BSTAR":0.00035483,"MEAN_MOTION_DOT":6.727e-5,"MEAN_MOTION_DDOT":0},{"OBJECT_NAME":"S-NET C","OBJECT_ID":"2018-014K","EPOCH":"2026-03-28T07:18:10.608480","MEAN_MOTION":15.15823982,"ECCENTRICITY":0.0008608,"INCLINATION":97.5451,"RA_OF_ASC_NODE":352.863,"ARG_OF_PERICENTER":292.0078,"MEAN_ANOMALY":68.0239,"EPHEMERIS_TYPE":0,"CLASSIFICATION_TYPE":"U","NORAD_CAT_ID":43189,"ELEMENT_SET_NO":999,"REV_AT_EPOCH":44505,"BSTAR":0.00031719063,"MEAN_MOTION_DOT":6.0e-5,"MEAN_MOTION_DDOT":0},{"OBJECT_NAME":"SALSAT","OBJECT_ID":"2020-068K","EPOCH":"2026-03-28T12:41:19.479552","MEAN_MOTION":15.285403,"ECCENTRICITY":0.00086745,"INCLINATION":97.8863,"RA_OF_ASC_NODE":85.7603,"ARG_OF_PERICENTER":217.3238,"MEAN_ANOMALY":142.7398,"EPHEMERIS_TYPE":0,"CLASSIFICATION_TYPE":"U","NORAD_CAT_ID":46495,"ELEMENT_SET_NO":999,"REV_AT_EPOCH":30303,"BSTAR":0.00037480321,"MEAN_MOTION_DOT":0.0001034,"MEAN_MOTION_DDOT":0}]
