APRIZESAT 2             
1 28366U 04025A   26087.43246869  .00000308  00000+0  10833-3 0  9999
2 28366  98.0939 258.0149 0106590 133.4569 227.5547 14.38001783140031
SAUDICOMSAT 1           
1 28369U 04025D   26087.58115107  .00000438  00000+0  11164-3 0  9990
2 28369  98.5807  95.5295 0030931 270.4960  89.2692 14.55408507152403
SAUDICOMSAT 2           
1 28370U 04025E   26087.59329769  .00000362  00000+0  10441-3 0  9997
2 28370  98.6681  97.5507 0056323 142.6942 217.8184 14.49924381148425
APRIZESAT 1             
1 28372U 04025G   26087.58683136  .00000361  00000+0  10093-3 0  9991
2 28372  98.6341  96.1066 0045375  41.4701 318.9922 14.51729614150217
NANOSAT-1               
1 28493U 04049B   26087.38115629  .00001467  00000+0  20130-3 0  9997
2 28493  98.2136 222.1350 0004032 175.1998 184.9252 14.79976349143492
SAUDICOMSAT 7           
1 31119U 07012C   26087.44092181  .00000855  00000+0  16184-3 0  9997
2 31119  98.3709  59.9576 0057111  89.4992 271.2754 14.66000663 10607
SAUDICOMSAT 6           
1 31121U 07012E   26087.42753774  .00000577  00000+0  12022-3 0  9998
2 31121  98.4021  53.4862 0071036 217.4940 142.1294 14.62458418  8381
SAUDICOMSAT 5           
1 31124U 07012H   26087.45832375  .00001078  00000+0  19391-3 0  9992
2 31124  98.3422  60.7379 0048023  21.1686 339.1491 14.68042245 11754
SAUDICOMSAT 3           
1 31125U 07012J   26087.42173532  .00001138  00000+0  19405-3 0  9996
2 31125  98.3079  61.2590 0038161 308.7873  50.9926 14.70571624 12953
SAUDICOMSAT 4           
1 31127U 07012L   26087.46303804  .00000655  00000+0  13010-3 0  9998
2 31127  98.3912  58.4292 0064092 149.6004 210.8939 14.64404401  9473
APRIZESAT 4             
1 35684U 09041D   26087.47028637  .00000940  00000+0  11890-3 0  9994
2 35684  98.1454 161.1772 0042514 222.0549 137.7398 14.83745375899397
APRIZESAT 3             
1 35686U 09041F   26087.37309003  .00001777  00000+0  15866-3 0  9990
2 35686  98.1943 236.7916 0061358 335.1541  24.6727 14.95968270904296
S-NET D                 
1 43186U 18014G   26087.55501027  .00006944  00000+0  36622-3 0  9998
2 43186  97.5420 352.8718 0006890 305.7225  54.3366 15.15863078446546
S-NET B                 
1 43187U 18014H   26087.30085660  .00006183  00000+0  32675-3 0  9991
2 43187  97.5424 352.6034 0007468 300.7224  59.3273 15.15831427446507
S-NET A                 
1 43188U 18014J   26087.29022372  .00006727  00000+0  35483-3 0  9995
2 43188  97.5433 352.7867 0007384 301.5746  58.4765 15.15866381446501
S-NET C                 
1 43189U 18014K   26087.30428945  .00006000  00000+0  31719-3 0  9996
2 43189  97.5451 352.8630 0008608 292.0078  68.0239 15.15823982445055
SALSAT                  
1 46495U 20068K   26087.52869768  .00010340  00000+0  37480-3 0  9990
2 46495  97.8863  85.7603 0008674 217.3238 142.7398 15.28540300303032
